{
  "type": "FeatureCollection",
  "features": [
    {
      "type": "Feature",
      "properties": {
        "norad_id": 29268,
        "name": "ARIRANG-2 (KOMPSAT-2)",
        "group": "resource",
        "lat": -46.10211735761625,
        "lon": 0.061951534068789775,
        "alt_km": 677.8808836794778,
        "timestamp": "2025-12-26T11:25:44.875979+00:00",
        "meta_object_name": "ARIRANG-2 (KOMPSAT-2)",
        "meta_object_id": "2006-031A",
        "meta_epoch": "2025-12-26T04:24:16.356096",
        "meta_mean_motion": 14.6450491,
        "meta_eccentricity": 0.001312,
        "meta_inclination": 97.8259,
        "meta_ra_of_asc_node": 188.0011,
        "meta_arg_of_pericenter": 262.8073,
        "meta_mean_anomaly": 221.6527,
        "meta_ephemeris_type": 0,
        "meta_classification_type": "U",
        "meta_norad_cat_id": 29268,
        "meta_element_set_no": 999,
        "meta_rev_at_epoch": 3615,
        "meta_bstar": 6.6679e-05,
        "meta_mean_motion_dot": 3.09e-06,
        "meta_mean_motion_ddot": 0,
        "tle_line1": "1 29268U 06031A   25360.18352264  .00000309  00000+0  66679-4 0  9993",
        "tle_line2": "2 29268  97.8259 188.0011 0013120 262.8073 221.6527 14.64504910 36157"
      },
      "geometry": {
        "type": "Point",
        "coordinates": [
          0.061951534068789775,
          -46.10211735761625
        ]
      }
    },
    {
      "type": "Feature",
      "properties": {
        "norad_id": 29709,
        "name": "LAPAN-TUBSAT",
        "group": "resource",
        "lat": 51.49616312713859,
        "lon": -178.7369974777906,
        "alt_km": 607.3918623735535,
        "timestamp": "2025-12-26T11:25:44.875989+00:00",
        "meta_object_name": "LAPAN-TUBSAT",
        "meta_object_id": "2007-001A",
        "meta_epoch": "2025-12-26T04:23:30.422400",
        "meta_mean_motion": 14.85689254,
        "meta_eccentricity": 0.0013123,
        "meta_inclination": 98.1266,
        "meta_ra_of_asc_node": 350.6164,
        "meta_arg_of_pericenter": 34.0239,
        "meta_mean_anomaly": 326.1814,
        "meta_ephemeris_type": 0,
        "meta_classification_type": "U",
        "meta_norad_cat_id": 29709,
        "meta_element_set_no": 999,
        "meta_rev_at_epoch": 2546,
        "meta_bstar": 7.4528e-05,
        "meta_mean_motion_dot": 5.9e-06,
        "meta_mean_motion_ddot": 0,
        "tle_line1": "1 29709U 07001A   25360.18299100  .00000590  00000+0  74528-4 0  9994",
        "tle_line2": "2 29709  98.1266 350.6164 0013123  34.0239 326.1814 14.85689254 25461"
      },
      "geometry": {
        "type": "Point",
        "coordinates": [
          -178.7369974777906,
          51.49616312713859
        ]
      }
    },
    {
      "type": "Feature",
      "properties": {
        "norad_id": 31113,
        "name": "HAIYANG-1B",
        "group": "resource",
        "lat": -11.048410430357986,
        "lon": 162.54782845696786,
        "alt_km": 802.2328171533063,
        "timestamp": "2025-12-26T11:25:44.875998+00:00",
        "meta_object_name": "HAIYANG-1B",
        "meta_object_id": "2007-010A",
        "meta_epoch": "2025-12-25T22:47:30.795072",
        "meta_mean_motion": 14.30969243,
        "meta_eccentricity": 0.0013551,
        "meta_inclination": 98.3331,
        "meta_ra_of_asc_node": 343.6829,
        "meta_arg_of_pericenter": 359.9847,
        "meta_mean_anomaly": 0.1334,
        "meta_ephemeris_type": 0,
        "meta_classification_type": "U",
        "meta_norad_cat_id": 31113,
        "meta_element_set_no": 999,
        "meta_rev_at_epoch": 97585,
        "meta_bstar": 6.0325e-05,
        "meta_mean_motion_dot": 1.17e-06,
        "meta_mean_motion_ddot": 0,
        "tle_line1": "1 31113U 07010A   25359.94966198  .00000117  00000+0  60325-4 0  9991",
        "tle_line2": "2 31113  98.3331 343.6829 0013551 359.9847   0.1334 14.30969243975859"
      },
      "geometry": {
        "type": "Point",
        "coordinates": [
          162.54782845696786,
          -11.048410430357986
        ]
      }
    },
    {
      "type": "Feature",
      "properties": {
        "norad_id": 31598,
        "name": "COSMO-SKYMED 1",
        "group": "resource",
        "lat": -43.41483911814904,
        "lon": -1.5673642973913993,
        "alt_km": 587.0724737949085,
        "timestamp": "2025-12-26T11:25:44.876007+00:00",
        "meta_object_name": "COSMO-SKYMED 1",
        "meta_object_id": "2007-023A",
        "meta_epoch": "2025-12-26T04:00:35.592768",
        "meta_mean_motion": 14.95862832,
        "meta_eccentricity": 0.0001172,
        "meta_inclination": 97.8839,
        "meta_ra_of_asc_node": 185.6551,
        "meta_arg_of_pericenter": 77.3468,
        "meta_mean_anomaly": 282.7883,
        "meta_ephemeris_type": 0,
        "meta_classification_type": "U",
        "meta_norad_cat_id": 31598,
        "meta_element_set_no": 999,
        "meta_rev_at_epoch": 391,
        "meta_bstar": 0.00028974,
        "meta_mean_motion_dot": 3.179e-05,
        "meta_mean_motion_ddot": 0,
        "tle_line1": "1 31598U 07023A   25360.16707862  .00003179  00000+0  28974-3 0  9993",
        "tle_line2": "2 31598  97.8839 185.6551 0001172  77.3468 282.7883 14.95862832  3918"
      },
      "geometry": {
        "type": "Point",
        "coordinates": [
          -1.5673642973913993,
          -43.41483911814904
        ]
      }
    },
    {
      "type": "Feature",
      "properties": {
        "norad_id": 31698,
        "name": "TERRASAR-X",
        "group": "resource",
        "lat": -48.087310629233016,
        "lon": 14.032112368509074,
        "alt_km": 516.0093855035047,
        "timestamp": "2025-12-26T11:25:44.876016+00:00",
        "meta_object_name": "TERRASAR-X",
        "meta_object_id": "2007-026A",
        "meta_epoch": "2025-12-25T13:30:40.378176",
        "meta_mean_motion": 15.19155603,
        "meta_eccentricity": 0.0001851,
        "meta_inclination": 97.4447,
        "meta_ra_of_asc_node": 4.756,
        "meta_arg_of_pericenter": 79.9289,
        "meta_mean_anomaly": 280.2154,
        "meta_ephemeris_type": 0,
        "meta_classification_type": "U",
        "meta_norad_cat_id": 31698,
        "meta_element_set_no": 999,
        "meta_rev_at_epoch": 2686,
        "meta_bstar": 7.0738e-05,
        "meta_mean_motion_dot": 1.419e-05,
        "meta_mean_motion_ddot": 0,
        "tle_line1": "1 31698U 07026A   25359.56296734  .00001419  00000+0  70738-4 0  9991",
        "tle_line2": "2 31698  97.4447   4.7560 0001851  79.9289 280.2154 15.19155603 26865"
      },
      "geometry": {
        "type": "Point",
        "coordinates": [
          14.032112368509074,
          -48.087310629233016
        ]
      }
    },
    {
      "type": "Feature",
      "properties": {
        "norad_id": 32060,
        "name": "WORLDVIEW-1 (WV-1)",
        "group": "resource",
        "lat": -28.859257815567346,
        "lon": -66.34249398114545,
        "alt_km": 501.4683531669207,
        "timestamp": "2025-12-26T11:25:44.876026+00:00",
        "meta_object_name": "WORLDVIEW-1 (WV-1)",
        "meta_object_id": "2007-041A",
        "meta_epoch": "2025-12-25T21:54:28.538784",
        "meta_mean_motion": 15.23970328,
        "meta_eccentricity": 0.000309,
        "meta_inclination": 97.3821,
        "meta_ra_of_asc_node": 117.2002,
        "meta_arg_of_pericenter": 352.1251,
        "meta_mean_anomaly": 7.9937,
        "meta_ephemeris_type": 0,
        "meta_classification_type": "U",
        "meta_norad_cat_id": 32060,
        "meta_element_set_no": 999,
        "meta_rev_at_epoch": 1648,
        "meta_bstar": 0.00033312,
        "meta_mean_motion_dot": 7.994e-05,
        "meta_mean_motion_ddot": 0,
        "tle_line1": "1 32060U 07041A   25359.91283031  .00007994  00000+0  33312-3 0  9997",
        "tle_line2": "2 32060  97.3821 117.2002 0003090 352.1251   7.9937 15.23970328 16481"
      },
      "geometry": {
        "type": "Point",
        "coordinates": [
          -66.34249398114545,
          -28.859257815567346
        ]
      }
    },
    {
      "type": "Feature",
      "properties": {
        "norad_id": 32289,
        "name": "YAOGAN-3",
        "group": "resource",
        "lat": 38.92474991284889,
        "lon": -146.63794713389606,
        "alt_km": 594.773693871557,
        "timestamp": "2025-12-26T11:25:44.876036+00:00",
        "meta_object_name": "YAOGAN-3",
        "meta_object_id": "2007-055A",
        "meta_epoch": "2025-12-26T04:21:11.766816",
        "meta_mean_motion": 14.89923264,
        "meta_eccentricity": 0.000125,
        "meta_inclination": 97.8357,
        "meta_ra_of_asc_node": 26.6844,
        "meta_arg_of_pericenter": 85.7138,
        "meta_mean_anomaly": 274.4222,
        "meta_ephemeris_type": 0,
        "meta_classification_type": "U",
        "meta_norad_cat_id": 32289,
        "meta_element_set_no": 999,
        "meta_rev_at_epoch": 98009,
        "meta_bstar": 0.00021756,
        "meta_mean_motion_dot": 2.038e-05,
        "meta_mean_motion_ddot": 0,
        "tle_line1": "1 32289U 07055A   25360.18138619  .00002038  00000+0  21756-3 0  9990",
        "tle_line2": "2 32289  97.8357  26.6844 0001250  85.7138 274.4222 14.89923264980092"
      },
      "geometry": {
        "type": "Point",
        "coordinates": [
          -146.63794713389606,
          38.92474991284889
        ]
      }
    }
  ]
}